{
  "type": "FeatureCollection",
  "features": [
    {
      "type": "Feature",
      "properties": {
        "norad_id": 67033,
        "name": "STARLINK-36137",
        "group": "last-30-days",
        "lat": -16.296552795201276,
        "lon": 122.9430036435296,
        "alt_km": 291.0938750692558,
        "timestamp": "2025-12-19T10:49:59.925659+00:00",
        "meta_object_name": "STARLINK-36137",
        "meta_object_id": "2025-294D",
        "meta_epoch": "2025-12-18T21:23:40.443648",
        "meta_mean_motion": 15.92925549,
        "meta_eccentricity": 0.00047226,
        "meta_inclination": 42.9991,
        "meta_ra_of_asc_node": 144.7192,
        "meta_arg_of_pericenter": 306.7424,
        "meta_mean_anomaly": 53.3018,
        "meta_ephemeris_type": 0,
        "meta_classification_type": "U",
        "meta_norad_cat_id": 67033,
        "meta_element_set_no": 999,
        "meta_rev_at_epoch": 232,
        "meta_bstar": 0.001643202,
        "meta_mean_motion_dot": 0.00591327,
        "meta_mean_motion_ddot": 0.00014704257,
        "tle_line1": "1 67033U 25294D   25352.89144032  .00591327  14704-3  16432-2 0  9993",
        "tle_line2": "2 67033  42.9991 144.7192 0004722 306.7424  53.3018 15.92925549  2322"
      },
      "geometry": {
        "type": "Point",
        "coordinates": [
          122.9430036435296,
          -16.296552795201276
        ]
      }
    },
    {
      "type": "Feature",
      "properties": {
        "norad_id": 67034,
        "name": "STARLINK-36140",
        "group": "last-30-days",
        "lat": -16.082052481968077,
        "lon": 123.20637812707466,
        "alt_km": 300.7654548308874,
        "timestamp": "2025-12-19T10:49:59.925671+00:00",
        "meta_object_name": "STARLINK-36140",
        "meta_object_id": "2025-294E",
        "meta_epoch": "2025-12-18T22:00:00.999936",
        "meta_mean_motion": 15.92267367,
        "meta_eccentricity": 0.0001563,
        "meta_inclination": 42.9997,
        "meta_ra_of_asc_node": 144.5539,
        "meta_arg_of_pericenter": 267.0825,
        "meta_mean_anomaly": 241.4553,
        "meta_ephemeris_type": 0,
        "meta_classification_type": "U",
        "meta_norad_cat_id": 67034,
        "meta_element_set_no": 999,
        "meta_rev_at_epoch": 130,
        "meta_bstar": -0.0036958172,
        "meta_mean_motion_dot": -0.01287293,
        "meta_mean_motion_ddot": 0.00048070636,
        "tle_line1": "1 67034U 25294E   25352.91667824 -.01287293  48071-3 -36958-2 0  9992",
        "tle_line2": "2 67034  42.9997 144.5539 0001563 267.0825 241.4553 15.92267367  1304"
      },
      "geometry": {
        "type": "Point",
        "coordinates": [
          123.20637812707466,
          -16.082052481968077
        ]
      }
    },
    {
      "type": "Feature",
      "properties": {
        "norad_id": 67035,
        "name": "STARLINK-36085",
        "group": "last-30-days",
        "lat": -10.923036282159897,
        "lon": 129.2536858005169,
        "alt_km": 291.2170260367002,
        "timestamp": "2025-12-19T10:49:59.925682+00:00",
        "meta_object_name": "STARLINK-36085",
        "meta_object_id": "2025-294F",
        "meta_epoch": "2025-12-18T18:21:11.787264",
        "meta_mean_motion": 15.93347153,
        "meta_eccentricity": 0.00037144,
        "meta_inclination": 42.9994,
        "meta_ra_of_asc_node": 145.4883,
        "meta_arg_of_pericenter": 318.8717,
        "meta_mean_anomaly": 41.1879,
        "meta_ephemeris_type": 0,
        "meta_classification_type": "U",
        "meta_norad_cat_id": 67035,
        "meta_element_set_no": 999,
        "meta_rev_at_epoch": 230,
        "meta_bstar": 0.00033958478,
        "meta_mean_motion_dot": 0.00123051,
        "meta_mean_motion_ddot": 1.4054397e-05,
        "tle_line1": "1 67035U 25294F   25352.76471976  .00123051  14054-4  33958-3 0  9998",
        "tle_line2": "2 67035  42.9994 145.4883 0003714 318.8717  41.1879 15.93347153  2309"
      },
      "geometry": {
        "type": "Point",
        "coordinates": [
          129.2536858005169,
          -10.923036282159897
        ]
      }
    },
    {
      "type": "Feature",
      "properties": {
        "norad_id": 67036,
        "name": "STARLINK-36125",
        "group": "last-30-days",
        "lat": -13.613054119901644,
        "lon": 126.14953885784229,
        "alt_km": 296.7153592075201,
        "timestamp": "2025-12-19T10:49:59.925692+00:00",
        "meta_object_name": "STARLINK-36125",
        "meta_object_id": "2025-294G",
        "meta_epoch": "2025-12-18T21:22:16.417920",
        "meta_mean_motion": 15.92728319,
        "meta_eccentricity": 0.00013973,
        "meta_inclination": 42.998,
        "meta_ra_of_asc_node": 144.7067,
        "meta_arg_of_pericenter": 271.2094,
        "meta_mean_anomaly": 88.8621,
        "meta_ephemeris_type": 0,
        "meta_classification_type": "U",
        "meta_norad_cat_id": 67036,
        "meta_element_set_no": 999,
        "meta_rev_at_epoch": 232,
        "meta_bstar": -0.001021653,
        "meta_mean_motion_dot": -0.00368266,
        "meta_mean_motion_ddot": 5.203223e-05,
        "tle_line1": "1 67036U 25294G   25352.89046780 -.00368266  52032-4 -10217-2 0  9995",
        "tle_line2": "2 67036  42.9980 144.7067 0001397 271.2094  88.8621 15.92728319  2327"
      },
      "geometry": {
        "type": "Point",
        "coordinates": [
          126.14953885784229,
          -13.613054119901644
        ]
      }
    },
    {
      "type": "Feature",
      "properties": {
        "norad_id": 67037,
        "name": "STARLINK-35732",
        "group": "last-30-days",
        "lat": -10.958158123451414,
        "lon": 129.21407585456222,
        "alt_km": 295.27634947371826,
        "timestamp": "2025-12-19T10:49:59.925704+00:00",
        "meta_object_name": "STARLINK-35732",
        "meta_object_id": "2025-294H",
        "meta_epoch": "2025-12-18T21:21:16.222176",
        "meta_mean_motion": 15.92822372,
        "meta_eccentricity": 0.00025529,
        "meta_inclination": 42.9994,
        "meta_ra_of_asc_node": 144.7043,
        "meta_arg_of_pericenter": 332.2119,
        "meta_mean_anomaly": 27.862,
        "meta_ephemeris_type": 0,
        "meta_classification_type": "U",
        "meta_norad_cat_id": 67037,
        "meta_element_set_no": 999,
        "meta_rev_at_epoch": 232,
        "meta_bstar": -0.0014410581,
        "meta_mean_motion_dot": -0.00520748,
        "meta_mean_motion_ddot": 9.4002976e-05,
        "tle_line1": "1 67037U 25294H   25352.88977109 -.00520748  94003-4 -14411-2 0  9992",
        "tle_line2": "2 67037  42.9994 144.7043 0002552 332.2119  27.8620 15.92822372  2323"
      },
      "geometry": {
        "type": "Point",
        "coordinates": [
          129.21407585456222,
          -10.958158123451414
        ]
      }
    },
    {
      "type": "Feature",
      "properties": {
        "norad_id": 67038,
        "name": "STARLINK-35775",
        "group": "last-30-days",
        "lat": -9.722671031477185,
        "lon": 130.60603217913769,
        "alt_km": 295.3250703026388,
        "timestamp": "2025-12-19T10:49:59.925714+00:00",
        "meta_object_name": "STARLINK-35775",
        "meta_object_id": "2025-294J",
        "meta_epoch": "2025-12-18T21:20:50.214912",
        "meta_mean_motion": 15.928874,
        "meta_eccentricity": 0.00021094,
        "meta_inclination": 42.999,
        "meta_ra_of_asc_node": 144.7014,
        "meta_arg_of_pericenter": 326.6352,
        "meta_mean_anomaly": 33.439,
        "meta_ephemeris_type": 0,
        "meta_classification_type": "U",
        "meta_norad_cat_id": 67038,
        "meta_element_set_no": 999,
        "meta_rev_at_epoch": 233,
        "meta_bstar": -0.0014709432,
        "meta_mean_motion_dot": -0.00533225,
        "meta_mean_motion_ddot": 9.8064521e-05,
        "tle_line1": "1 67038U 25294J   25352.88947008 -.00533225  98065-4 -14709-2 0  9994",
        "tle_line2": "2 67038  42.9990 144.7014 0002109 326.6352  33.4390 15.92887400  2333"
      },
      "geometry": {
        "type": "Point",
        "coordinates": [
          130.60603217913769,
          -9.722671031477185
        ]
      }
    },
    {
      "type": "Feature",
      "properties": {
        "norad_id": 67039,
        "name": "STARLINK-35705",
        "group": "last-30-days",
        "lat": -6.868444669678597,
        "lon": 133.76545570200707,
        "alt_km": 293.6971887871614,
        "timestamp": "2025-12-19T10:49:59.925724+00:00",
        "meta_object_name": "STARLINK-35705",
        "meta_object_id": "2025-294K",
        "meta_epoch": "2025-12-18T21:19:56.570880",
        "meta_mean_motion": 15.93136582,
        "meta_eccentricity": 0.00027709,
        "meta_inclination": 42.9994,
        "meta_ra_of_asc_node": 144.6978,
        "meta_arg_of_pericenter": 312.0855,
        "meta_mean_anomaly": 47.9785,
        "meta_ephemeris_type": 0,
        "meta_classification_type": "U",
        "meta_norad_cat_id": 67039,
        "meta_element_set_no": 999,
        "meta_rev_at_epoch": 232,
        "meta_bstar": -0.0010395865,
        "meta_mean_motion_dot": -0.00382869,
        "meta_mean_motion_ddot": 5.5690243e-05,
        "tle_line1": "1 67039U 25294K   25352.88884920 -.00382869  55690-4 -10396-2 0  9999",
        "tle_line2": "2 67039  42.9994 144.6978 0002770 312.0855  47.9785 15.93136582  2323"
      },
      "geometry": {
        "type": "Point",
        "coordinates": [
          133.76545570200707,
          -6.868444669678597
        ]
      }
    }
  ]
}